OOV-CUBE (TUBSAT-30)    
1 60240U 24128F   26073.62163683  .00004141  00000+0  31800-3 0  9996
2 60240  61.9949 195.2009 0054104 113.3541 247.3255 15.02294035 91908
COLIBRI-S (RS67S)       
1 61746U 24199M   26073.61140826  .00031093  00000+0  68839-3 0  9997
2 61746  97.3158 306.7982 0007469 263.3185  96.7213 15.43708021122800
HORS 3 (RS81S)          
1 61753U 24199U   26073.62203950  .00045352  00000+0  84328-3 0  9998
2 61753  97.3125 307.9502 0005296 265.9676  94.0969 15.48745922122896
HORS 4 (RS82S)          
1 61754U 24199V   26073.61630808  .00055495  00000+0  93071-3 0  9998
2 61754  97.3097 308.6609 0004924 261.8977  98.1717 15.51633951122941
HORIZON (RS59S)         
1 61757U 24199Y   26073.58746224  .00187850  00000+0  14275-2 0  9996
2 61757  97.3065 312.6141 0003565 215.8121 144.2903 15.71736412123191
ARCTICSAT 1 (RS74S)     
1 61762U 24199AD  26073.61498078  .00135930  00000+0  12697-2 0  9995
2 61762  97.3082 312.1307 0003852 218.7968 141.3017 15.66854668123164
SIT-2086                
1 61764U 24199AF  26073.63544230  .00033500  00000+0  64226-3 0  9997
2 61764  97.3119 308.6885 0005945 251.0836 108.9771 15.47924988119788
HYPERVIEW 1G (RS66S)    
1 61772U 24199AP  26073.63681154  .00090903  00000+0  11700-2 0  9991
2 61772  97.3084 309.8394 0006288 259.2893 100.7655 15.58731026119872
ALTAIR (RS65S)          
1 61779U 24199AW  26073.59062314  .00013852  00000+0  40795-3 0  9999
2 61779  97.3182 303.6128 0011763 288.5950  71.4016 15.35094335122596
ASRTU-1 (AO-123)        
1 61781U 24199AY  26073.57321027  .00013238  00000+0  40142-3 0  9993
2 61781  97.3155 303.1139 0012508 290.7564  69.2338 15.34172863119411
TUSUR GO (RS78S)        
1 61782U 24199AZ  26073.28008918  .00198296  00000+0  14653-2 0  9998
2 61782  97.3020 311.3048 0003763 241.5629 118.5255 15.72371950119946
SAMSAT-IONOSPHERE (RS7*)
1 61784U 24199BB  26073.57787928  .00053853  00000+0  95707-3 0  9996
2 61784  97.3118 307.7060 0008408 271.3108  88.7180 15.49976313122872
RTU MIREA 1 (RS51S)     
1 61785U 24199BC  26073.63412390  .00059690  00000+0  98759-3 0  9997
2 61785  97.3118 308.2221 0008306 265.8902  94.1401 15.51971610119764
TEVEL2-4                
1 63213U 25052D   26073.46527085  .00024051  00000+0  80014-3 0  9991
2 63213  97.4019 329.8836 0004798  86.5032 273.6758 15.31142676 55608
TEVEL2-5                
1 63214U 25052E   26072.95373556  .00021913  00000+0  73283-3 0  9991
2 63214  97.4014 329.3446 0004731  87.9686 272.2097 15.30992820 55528
TEVEL2-6                
1 63215U 25052F   26073.61727799  .00027598  00000+0  92174-3 0  9993
2 63215  97.4019 329.9926 0004864  86.9728 273.2070 15.30988241 55621
