[{"OBJECT_NAME":"OOV-CUBE (TUBSAT-30)","OBJECT_ID":"2024-128F","EPOCH":"2026-03-14T14:55:09.422112","MEAN_MOTION":15.02294035,"ECCENTRICITY":0.00541042,"INCLINATION":61.9949,"RA_OF_ASC_NODE":195.2009,"ARG_OF_PERICENTER":113.3541,"MEAN_ANOMALY":247.3255,"EPHEMERIS_TYPE":0,"CLASSIFICATION_TYPE":"U","NORAD_CAT_ID":60240,"ELEMENT_SET_NO":999,"REV_AT_EPOCH":9190,"BSTAR":0.0003179983,"MEAN_MOTION_DOT":4.141e-5,"MEAN_MOTION_DDOT":0},{"OBJECT_NAME":"COLIBRI-S (RS67S)","OBJECT_ID":"2024-199M","EPOCH":"2026-03-14T14:40:25.673664","MEAN_MOTION":15.43708021,"ECCENTRICITY":0.00074691,"INCLINATION":97.3158,"RA_OF_ASC_NODE":306.7982,"ARG_OF_PERICENTER":263.3185,"MEAN_ANOMALY":96.7213,"EPHEMERIS_TYPE":0,"CLASSIFICATION_TYPE":"U","NORAD_CAT_ID":61746,"ELEMENT_SET_NO":999,"REV_AT_EPOCH":12280,"BSTAR":0.00068839373,"MEAN_MOTION_DOT":0.00031093,"MEAN_MOTION_DDOT":0},{"OBJECT_NAME":"HORS 3 (RS81S)","OBJECT_ID":"2024-199U","EPOCH":"2026-03-14T14:55:44.212800","MEAN_MOTION":15.48745922,"ECCENTRICITY":0.00052967,"INCLINATION":97.3125,"RA_OF_ASC_NODE":307.9502,"ARG_OF_PERICENTER":265.9676,"MEAN_ANOMALY":94.0969,"EPHEMERIS_TYPE":0,"CLASSIFICATION_TYPE":"U","NORAD_CAT_ID":61753,"ELEMENT_SET_NO":999,"REV_AT_EPOCH":12289,"BSTAR":0.00084328363,"MEAN_MOTION_DOT":0.00045352,"MEAN_MOTION_DDOT":0},{"OBJECT_NAME":"HORS 4 (RS82S)","OBJECT_ID":"2024-199V","EPOCH":"2026-03-14T14:47:29.018112","MEAN_MOTION":15.51633951,"ECCENTRICITY":0.00049245,"INCLINATION":97.3097,"RA_OF_ASC_NODE":308.6609,"ARG_OF_PERICENTER":261.8977,"MEAN_ANOMALY":98.1717,"EPHEMERIS_TYPE":0,"CLASSIFICATION_TYPE":"U","NORAD_CAT_ID":61754,"ELEMENT_SET_NO":999,"REV_AT_EPOCH":12294,"BSTAR":0.00093070992,"MEAN_MOTION_DOT":0.00055495,"MEAN_MOTION_DDOT":0},{"OBJECT_NAME":"HORIZON (RS59S)","OBJECT_ID":"2024-199Y","EPOCH":"2026-03-14T14:05:56.737536","MEAN_MOTION":15.71736412,"ECCENTRICITY":0.00035659,"INCLINATION":97.3065,"RA_OF_ASC_NODE":312.6141,"ARG_OF_PERICENTER":215.8121,"MEAN_ANOMALY":144.2903,"EPHEMERIS_TYPE":0,"CLASSIFICATION_TYPE":"U","NORAD_CAT_ID":61757,"ELEMENT_SET_NO":999,"REV_AT_EPOCH":12319,"BSTAR":0.0014274766,"MEAN_MOTION_DOT":0.0018785,"MEAN_MOTION_DDOT":0},{"OBJECT_NAME":"ARCTICSAT 1 (RS74S)","OBJECT_ID":"2024-199AD","EPOCH":"2026-03-14T14:45:34.339392","MEAN_MOTION":15.66854668,"ECCENTRICITY":0.00038524,"INCLINATION":97.3082,"RA_OF_ASC_NODE":312.1307,"ARG_OF_PERICENTER":218.7968,"MEAN_ANOMALY":141.3017,"EPHEMERIS_TYPE":0,"CLASSIFICATION_TYPE":"U","NORAD_CAT_ID":61762,"ELEMENT_SET_NO":999,"REV_AT_EPOCH":12316,"BSTAR":0.0012697446,"MEAN_MOTION_DOT":0.0013593,"MEAN_MOTION_DDOT":0},{"OBJECT_NAME":"SIT-2086","OBJECT_ID":"2024-199AF","EPOCH":"2026-03-14T15:15:02.214720","MEAN_MOTION":15.47924988,"ECCENTRICITY":0.00059457,"INCLINATION":97.3119,"RA_OF_ASC_NODE":308.6885,"ARG_OF_PERICENTER":251.0836,"MEAN_ANOMALY":108.9771,"EPHEMERIS_TYPE":0,"CLASSIFICATION_TYPE":"U","NORAD_CAT_ID":61764,"ELEMENT_SET_NO":999,"REV_AT_EPOCH":11978,"BSTAR":0.00064225677,"MEAN_MOTION_DOT":0.000335,"MEAN_MOTION_DDOT":0},{"OBJECT_NAME":"HYPERVIEW 1G (RS66S)","OBJECT_ID":"2024-199AP","EPOCH":"2026-03-14T15:17:00.517056","MEAN_MOTION":15.58731026,"ECCENTRICITY":0.00062881,"INCLINATION":97.3084,"RA_OF_ASC_NODE":309.8394,"ARG_OF_PERICENTER":259.2893,"MEAN_ANOMALY":100.7655,"EPHEMERIS_TYPE":0,"CLASSIFICATION_TYPE":"U","NORAD_CAT_ID":61772,"ELEMENT_SET_NO":999,"REV_AT_EPOCH":11987,"BSTAR":0.0011699977,"MEAN_MOTION_DOT":0.00090903,"MEAN_MOTION_DDOT":0},{"OBJECT_NAME":"ALTAIR (RS65S)","OBJECT_ID":"2024-199AW","EPOCH":"2026-03-14T14:10:29.839296","MEAN_MOTION":15.35094335,"ECCENTRICITY":0.00117635,"INCLINATION":97.3182,"RA_OF_ASC_NODE":303.6128,"ARG_OF_PERICENTER":288.595,"MEAN_ANOMALY":71.4016,"EPHEMERIS_TYPE":0,"CLASSIFICATION_TYPE":"U","NORAD_CAT_ID":61779,"ELEMENT_SET_NO":999,"REV_AT_EPOCH":12259,"BSTAR":0.00040795022,"MEAN_MOTION_DOT":0.00013852,"MEAN_MOTION_DDOT":0},{"OBJECT_NAME":"ASRTU-1 (AO-123)","OBJECT_ID":"2024-199AY","EPOCH":"2026-03-14T13:45:25.367328","MEAN_MOTION":15.34172863,"ECCENTRICITY":0.00125081,"INCLINATION":97.3155,"RA_OF_ASC_NODE":303.1139,"ARG_OF_PERICENTER":290.7564,"MEAN_ANOMALY":69.2338,"EPHEMERIS_TYPE":0,"CLASSIFICATION_TYPE":"U","NORAD_CAT_ID":61781,"ELEMENT_SET_NO":999,"REV_AT_EPOCH":11941,"BSTAR":0.00040141919,"MEAN_MOTION_DOT":0.00013238,"MEAN_MOTION_DDOT":0},{"OBJECT_NAME":"TUSUR GO (RS78S)","OBJECT_ID":"2024-199AZ","EPOCH":"2026-03-14T06:43:19.705152","MEAN_MOTION":15.7237195,"ECCENTRICITY":0.0003763,"INCLINATION":97.302,"RA_OF_ASC_NODE":311.3048,"ARG_OF_PERICENTER":241.5629,"MEAN_ANOMALY":118.5255,"EPHEMERIS_TYPE":0,"CLASSIFICATION_TYPE":"U","NORAD_CAT_ID":61782,"ELEMENT_SET_NO":999,"REV_AT_EPOCH":11994,"BSTAR":0.0014652855,"MEAN_MOTION_DOT":0.00198296,"MEAN_MOTION_DDOT":0},{"OBJECT_NAME":"SAMSAT-IONOSPHERE (RS75S)","OBJECT_ID":"2024-199BB","EPOCH":"2026-03-14T13:52:08.769792","MEAN_MOTION":15.49976313,"ECCENTRICITY":0.00084089,"INCLINATION":97.3118,"RA_OF_ASC_NODE":307.706,"ARG_OF_PERICENTER":271.3108,"MEAN_ANOMALY":88.718,"EPHEMERIS_TYPE":0,"CLASSIFICATION_TYPE":"U","NORAD_CAT_ID":61784,"ELEMENT_SET_NO":999,"REV_AT_EPOCH":12287,"BSTAR":0.00095707017,"MEAN_MOTION_DOT":0.00053853,"MEAN_MOTION_DDOT":0},{"OBJECT_NAME":"RTU MIREA 1 (RS51S)","OBJECT_ID":"2024-199BC","EPOCH":"2026-03-14T15:13:08.304960","MEAN_MOTION":15.5197161,"ECCENTRICITY":0.00083069,"INCLINATION":97.3118,"RA_OF_ASC_NODE":308.2221,"ARG_OF_PERICENTER":265.8902,"MEAN_ANOMALY":94.1401,"EPHEMERIS_TYPE":0,"CLASSIFICATION_TYPE":"U","NORAD_CAT_ID":61785,"ELEMENT_SET_NO":999,"REV_AT_EPOCH":11976,"BSTAR":0.00098759251,"MEAN_MOTION_DOT":0.0005969,"MEAN_MOTION_DDOT":0},{"OBJECT_NAME":"TEVEL2-4","OBJECT_ID":"2025-052D","EPOCH":"2026-03-14T11:09:59.401440","MEAN_MOTION":15.31142676,"ECCENTRICITY":0.00047988,"INCLINATION":97.4019,"RA_OF_ASC_NODE":329.8836,"ARG_OF_PERICENTER":86.5032,"MEAN_ANOMALY":273.6758,"EPHEMERIS_TYPE":0,"CLASSIFICATION_TYPE":"U","NORAD_CAT_ID":63213,"ELEMENT_SET_NO":999,"REV_AT_EPOCH":5560,"BSTAR":0.00080014096,"MEAN_MOTION_DOT":0.00024051,"MEAN_MOTION_DDOT":0},{"OBJECT_NAME":"TEVEL2-5","OBJECT_ID":"2025-052E","EPOCH":"2026-03-13T22:53:22.752384","MEAN_MOTION":15.3099282,"ECCENTRICITY":0.00047317,"INCLINATION":97.4014,"RA_OF_ASC_NODE":329.3446,"ARG_OF_PERICENTER":87.9686,"MEAN_ANOMALY":272.2097,"EPHEMERIS_TYPE":0,"CLASSIFICATION_TYPE":"U","NORAD_CAT_ID":63214,"ELEMENT_SET_NO":999,"REV_AT_EPOCH":5552,"BSTAR":0.00073282559,"MEAN_MOTION_DOT":0.00021913,"MEAN_MOTION_DDOT":0},{"OBJECT_NAME":"TEVEL2-6","OBJECT_ID":"2025-052F","EPOCH":"2026-03-14T14:48:52.818336","MEAN_MOTION":15.30988241,"ECCENTRICITY":0.00048645,"INCLINATION":97.4019,"RA_OF_ASC_NODE":329.9926,"ARG_OF_PERICENTER":86.9728,"MEAN_ANOMALY":273.207,"EPHEMERIS_TYPE":0,"CLASSIFICATION_TYPE":"U","NORAD_CAT_ID":63215,"ELEMENT_SET_NO":999,"REV_AT_EPOCH":5562,"BSTAR":0.00092174307,"MEAN_MOTION_DOT":0.00027598,"MEAN_MOTION_DDOT":0}]
